#dP2021 12  4  0  0  0.00000000      96 __u+U ITR00 FIT  IAC
## 2186 518400.00000000   900.00000000 59552 0.0000000000000
+  125   C01C02C03C04C05C06C07C08C09C10C11C12C13C14C16C19C20
+        C21C22C23C24C25C26C27C28C29C30C32C33C34C35C36C37C38
+        C39C40C41C42C43C44C45C46C60E01E02E03E04E05E07E08E09
+        E11E12E13E14E15E18E19E21E24E25E26E27E30E31E33E36G01
+        G02G03G04G05G06G07G08G09G10G12G13G14G15G16G17G18G19
+        G20G21G22G23G24G25G26G27G28G30G31G32J01J02J03J07R01
+        R02R03R04R05R06R07R08R09R10R11R12R13R14R15R16R17R18
+        R19R20R21R22R23R24  0  0  0  0  0  0  0  0  0  0  0
++        13 12 13 13 13  9  9 10  9  9  9  8 10  9  9  7  7
++         7  7  7  7  7  7  7  7  7  7  7  7  7  7  7  7  8
++         8  8  7  7  7  7  7  7 13  4  4  4  4  4  5  4  4
++         5  4  4  4  4  4  4  4  4  4  5  4  4  5  5  5  3
++         4  4  4  4  4  3  3  4  3  4  3  3  4  4  4  3  4
++         4  4  4  3  4  4  4  3  4  3  4  4  8  8  8 15  7
++         6  5  6  6 13  6  6  6 13  7  6  7  6  6  7  6  5
++         7  7  6  7 13  6  0  0  0  0  0  0  0  0  0  0  0
%c M  cc GPS ccc cccc cccc cccc cccc ccccc ccccc ccccc ccccc
%c cc cc ccc ccc cccc cccc cccc cccc ccccc ccccc ccccc ccccc
%f  0.0000000  0.000000000  0.00000000000  0.000000000000000
%f  0.0000000  0.000000000  0.00000000000  0.000000000000000
%i    0    0    0    0      0      0      0      0         0
%i    0    0    0    0      0      0      0      0         0
/* INFORMATION & ANALYSIS CENTER (IAC)            RAPID DATA
/* S/V CLOCKS ARE ALIGNED TO GNSS TIME                      
/* G:C1WC2W R:C1PC2P E:C1XC5X C:C2IC6I J:C1CC2S             
/* PCV:IGS14_2178 OL/AL:FES2004  NONE     YN ORB:CoN CLK:CoN
*  2021 12 04  1  0  0.00000000
PC01 -34339.417796  24421.995050     12.818851   -381.961606
PC02   4363.756769  41969.107465   1099.801555    839.243496
PC03 -14816.661151  39488.296260    819.144543    294.484976
PC04 -39632.768892  14322.397563   -244.336186    298.026975
PC05  21907.750555  36022.936480   1370.579352    322.248915
PC06  -6311.896429  40872.615319   8691.197800    581.842578
PC07  -6016.406819  26391.748330 -32319.010346    163.791189
PC08 -18325.591148  28383.681208  25147.138356    -52.703811
PC09  -3458.441059  42231.688424   2246.708037   -319.005926
PC10   3146.404358  28586.895187 -30471.465761    136.176623
PC11 -13119.628302  15382.445184 -19145.275953   -354.831540
PC12 -14987.255949  -5091.344910 -22941.460687   -423.329547
PC13 -12393.754003  29027.730249  27928.917995   -189.020029
PC14 -18063.929043   5886.262686  20470.956365    509.942489
PC16  -9527.025931  38736.154670  14141.105295     11.597767
PC19   9181.064784 -12941.141658 -22938.224085    927.193512
PC20  22900.714054    667.914515 -15912.389595   -792.560395
PC21 -23679.374632 -14738.857723  -1093.522157   -943.042308
PC22 -10359.898918 -19615.696527 -16948.268190   -969.574475
PC23   -479.683937  17866.577179 -21425.333426   -963.206480
PC24 -25569.113038   7722.373181   8014.564689   -954.735333
PC25 -17588.844904  19022.869669 -10341.840612   -815.281273
PC26 -18385.899879  -5844.510626  20139.504286    812.885256
PC27  13085.543631  15137.559601  19441.879934    639.554463
PC28   2929.317143  27265.697038   5161.221920      4.742855
PC29   8149.783431 -23700.881300  12269.382958    482.842197
PC30  15513.331101  -5663.310343  22490.154770    487.881685
PC32  23749.437407  14604.386947   1184.892761   -958.176846
PC33  -9237.955370  12955.691457  22923.090063   -964.354668
PC34 -15426.047668   6713.668013 -22272.882448   -522.695115
PC35  -3548.889291 -27273.650431  -4627.375138     29.822412
PC36  18380.660053 -18504.004413   9963.460113   -821.571382
PC37  17489.684956   7031.906207 -20571.394873   -904.360896
PC38 -25111.762050  29416.512929  16597.905575    194.051928
PC39 -10302.359931  36389.840347  18795.091278     34.226388
PC40 -11083.927650  19697.305923 -35593.335688    223.385257
PC41   9993.069065  19592.114043  17225.039923   -915.534343
PC42 -23350.697595  -1342.222330  15264.553802   -936.504287
PC43  -8658.265444  23286.189523 -12732.967265   -956.687295
PC44 -13661.238131 -14838.197120 -19278.274042    486.584282
PC45    331.705564 -17713.660483  21569.265870    617.582951
PC46  25614.635341  -8759.829946  -6870.277154    -41.808070
PC60   7285.683483  41524.859035   -150.929096     -0.376782
PE01  -8364.210672  15978.782236 -23463.405448   -530.500371
PE02   8230.421214 -16006.320958  23506.813491    264.506285
PE03   -347.498981 -24133.315101 -17152.014506   -502.637620
PE04  15030.719847  25499.709647    355.771720   -913.187580
PE05  14808.246985  -8552.013247 -24167.165225   -229.157604
PE07 -21144.326529 -11809.885738  17018.152133   -613.804970
PE08 -15363.674105 -25305.952258     18.429961   5894.687475
PE09  21098.659397  11555.024833 -17247.033326   5442.061131
PE11  17247.343521   1082.087793  24027.677288   4962.687172
PE12   4457.491745  20371.658666  21015.576861   4878.513238
PE13 -16935.195298  -1635.587955 -24212.391068    424.330933
PE14   6662.844881  24694.955272  -2038.308484  -1662.290209
PE15  -4379.491766 -20392.631213 -20994.065664    777.323922
PE18 -17440.491144 -23603.885148 -11265.540122  -1827.957916
PE19  -1642.341903  22809.719614  18792.891118    443.331796
PE21 -25372.948336   8814.492570 -12422.450114   -703.231839
PE24  28296.096801   4696.974437  -7384.667780  -1260.588077
PE25  25528.906781  -8686.928579  12230.312226   -555.690439
PE26 -19405.955842  18701.311387 -12220.024294   -528.755306
PE27 -28649.551151  -3837.607711   6342.976353   -178.946700
PE30 -13772.273264 -14619.377038  21731.979428    -81.130625
PE31  15073.882352  14113.273369 -21201.656572   -488.894484
PE33 -10697.173519  27061.118628   5435.174195   -461.838480
PE36  19474.315548 -17977.106006  13189.756388   -298.913134
PG01  13270.915985 -22268.180663  -5150.596541    493.599314
PG02 -19068.488423  11131.150557 -14171.864420   -644.439403
PG03   9385.942868 -13266.466195 -21093.064702    -30.749145
PG04   3065.362073 -21717.993825 -14925.577152   -200.164957
PG05 -22879.680519   6255.052030  11939.094602    -63.204656
PG06 -14182.264545  -5250.796220 -21773.235352    133.583037
PG07   -105.658940 -20099.663862  17482.491982    286.453132
PG08  10502.856350 -12300.854305  20990.873623    -46.692750
PG09  -6851.838261 -25127.886682  -5196.758785   -361.023691
PG10  20088.853177  11738.035564  13206.590368   -260.468595
PG12 -12069.594097  11907.608337 -20664.369297   -135.571574
PG13 -14420.350454   4097.128419  21769.425159    224.095052
PG14 -19334.173807 -12772.214990  13031.511727    -49.303885
PG15  -9247.796414  14107.201080  20045.821820   -101.798573
PG16  24894.880088  -1054.577784   9580.127128   -434.666707
PG17 -12910.298984 -21686.442818  -7787.340361    542.546020
PG18      7.668292  19556.101193  17920.381135    285.490670
PG19 -15472.077250 -15092.855201 -15813.175198     87.547367
PG20 -26330.427994   1544.785788   1453.860831    517.810308
PG21  17235.790496 -19181.824559   5554.173015    152.794748
PG22  17367.746271 -11437.867882 -16231.342906   -449.806844
PG23   9108.771702  14877.531283  20035.604126     25.790231
PG24 -14394.375685  22050.217641   -147.336856    272.486705
PG25    833.918634  15539.057762 -21814.504176    250.350263
PG26  25944.182207   5077.878927  -3972.725378    161.561030
PG27  15446.442306   -782.557336  21455.753829   -226.802816
PG28 -23454.334101 -10347.994019   7026.233978    450.272328
PG30  -9172.247272 -13348.138841  21088.151227   -496.525349
PG31  16398.531419   3189.398034 -20858.823055   -153.298376
PG32  16043.523769  18114.555681 -11046.188359    -30.242974
PJ01 -27294.877649  19804.505650  30288.756935    111.242316
PJ02 -33613.665625  16759.727274 -14580.230324     -0.255578
PJ03 -20872.308453  31101.820417 -14777.335635     -8.121839
PJ07 -25391.736834  33655.096319    -21.749198     -0.022005
PR01 -20792.872148 -13427.985968   6176.657026     88.981200
PR02 -13959.876562   1106.062744  21337.914611    502.137921
PR03    512.396186  13934.195540  21409.788304     47.525832
PR04  14498.843622  18686.198103   9593.257717    117.188839
PR05  20436.968031  13283.011779  -7567.304862     83.585315
PR06  13411.504200  -2397.489891 -21587.794416    -19.394256
PR07  -1072.888921 -14234.396674 -21096.023973    -39.496946
PR08 -14581.352170 -18651.673186  -9408.967664    -62.348674
PR09  23332.953001  -9873.068403   2643.489109     26.883257
PR10  13345.496019 -13493.527265  17077.168759    -77.645708
PR11  -5404.743029  -9600.232813  23016.945379     49.459124
PR12 -20991.782138     23.578554  14500.082803    283.610908
PR13 -23657.109461   9394.655891  -1631.660810    -64.359334
PR14 -12161.839839  13468.474423 -17919.718165     71.681454
PR15   6033.738535   9489.962100 -22876.001035     99.820535
PR16  21769.756114  -1280.992565 -13370.656182    -26.134794
PR17  -6682.505060  24274.168812  -3937.831972    480.446766
PR18   1202.051003  22160.558702  12637.814519     99.300577
PR19   7925.103524   9548.498064  22290.265654   -169.361702
PR20  11619.692490 -11906.742409  19335.059892    -60.531183
PR21   6228.384371 -24619.834607   2578.691450   -259.467908
PR22  -1550.224628 -21559.603175 -13477.942119   -149.177191
PR23 -10049.492877  -2723.165959 -23287.261852    -22.130526
PR24 -11691.183324  12765.487815 -18704.508796     69.661163
EOF
